OBJECT_NAME,OBJECT_ID,EPOCH,MEAN_MOTION,ECCENTRICITY,INCLINATION,RA_OF_ASC_NODE,ARG_OF_PERICENTER,MEAN_ANOMALY,EPHEMERIS_TYPE,CLASSIFICATION_TYPE,NORAD_CAT_ID,ELEMENT_SET_NO,REV_AT_EPOCH,BSTAR,MEAN_MOTION_DOT,MEAN_MOTION_DDOT
STARLINK-35005,2025-194Y,2026-05-30T01:04:11.146080,15.05663924,.0002006,97.4305,4.1689,95.9164,264.2292,0,U,65456,999,4189,.53412E-3,.7659E-4,0
STARLINK-35076,2025-194Z,2026-05-30T00:36:14.661216,15.05656814,.0001507,97.4302,4.0388,76.5149,283.6246,0,U,65457,999,4188,.12186E-3,.1701E-4,0
STARLINK-34784,2025-195A,2026-05-30T03:46:07.017024,15.31748899,.0001412,53.1594,239.2878,109.7469,250.3684,0,U,65458,999,4247,.63624E-3,.1946E-3,0
STARLINK-34867,2025-195B,2026-05-29T12:25:16.721760,15.34423823,.00011446,53.1596,242.4020,93.4954,266.6179,0,U,65459,999,4237,.95773606E-3,.32146E-3,0
STARLINK-34850,2025-195C,2026-05-29T15:26:49.139520,15.34388071,.00013613,53.1606,241.7689,68.0161,292.0987,0,U,65460,999,4239,.12876259E-2,.43364E-3,0
STARLINK-35159,2025-195D,2026-05-29T20:38:29.224608,15.34416504,.00015752,53.1601,240.9860,150.7136,209.3955,0,U,65461,999,4242,-.25225047E-3,-.8894E-4,0
STARLINK-35180,2025-195E,2026-05-29T12:28:18.720768,15.34382777,.00012462,53.1613,242.4170,72.0149,288.0990,0,U,65462,999,4237,.92121945E-3,.3086E-3,0
STARLINK-35111,2025-195F,2026-05-30T04:00:01.998720,15.31665273,.0001295,53.1599,239.4371,94.7307,215.6161,0,U,65463,999,590,.21196E-2,.65921E-3,0
STARLINK-35107,2025-195G,2026-05-29T13:13:36.626304,15.31700497,.00012706,53.1581,241.9019,98.0397,262.0748,0,U,65464,999,4238,.52429827E-3,.1594E-3,0
STARLINK-35169,2025-195H,2026-05-30T04:00:01.998720,15.34354210,.0000659,53.1591,239.6882,84.8461,100.1555,0,U,65465,999,591,.18553E-2,.62741E-3,0
STARLINK-35027,2025-195J,2026-05-30T04:00:01.998720,15.34356773,.0001238,53.1603,239.5263,93.4487,172.9631,0,U,65466,999,580,.21808E-2,.73934E-3,0
STARLINK-34816,2025-195K,2026-05-29T15:27:45.988128,15.30227947,.00014878,53.1589,242.4783,59.3792,300.7355,0,U,65467,999,4238,.8363019E-3,.24513E-3,0
STARLINK-35033,2025-195L,2026-05-30T04:59:55.286592,15.31750235,.0001188,53.1591,238.8925,98.9847,261.1289,0,U,65468,999,4248,.12244E-2,.37884E-3,0
STARLINK-34924,2025-195M,2026-05-29T12:22:15.305952,15.34380709,.00014365,53.1605,242.3909,58.7333,301.3810,0,U,65469,999,4237,.69047469E-3,.2301E-3,0
STARLINK-34829,2025-195N,2026-05-29T15:21:10.792800,15.31696571,.00013134,53.1605,241.7420,74.1365,285.9781,0,U,65470,999,4239,.90759873E-3,.27901E-3,0
STARLINK-34888,2025-195P,2026-05-30T04:00:01.998720,15.34372497,.000078,53.1592,239.6601,100.3653,96.2444,0,U,65471,999,579,.25229E-2,.85766E-3,0
STARLINK-34799,2025-195Q,2026-05-29T15:17:43.683360,15.34386664,.00013583,53.1607,241.7299,75.4759,284.6394,0,U,65472,999,4237,.11163975E-2,.37516E-3,0
STARLINK-34762,2025-195R,2026-05-29T15:11:39.461568,15.34425624,.00010933,53.1602,241.6981,106.8194,253.2928,0,U,65473,999,4237,.52671334E-3,.17476E-3,0
STARLINK-34998,2025-195S,2026-05-29T12:57:29.516544,15.30194869,.00015075,53.1590,242.5368,79.9803,280.1367,0,U,65474,999,4235,.66320597E-3,.19331E-3,0
STARLINK-34832,2025-195T,2026-05-29T15:05:36.618720,15.34403556,.00015452,53.1590,241.6756,39.7508,320.3608,0,U,65475,999,4237,.11802893E-2,.39718E-3,0
STARLINK-35098,2025-195U,2026-05-29T11:32:55.942656,15.31719098,.00011686,53.1583,242.1722,90.4046,269.7089,0,U,65476,999,4235,.88891756E-3,.27337E-3,0
STARLINK-35071,2025-195V,2026-05-29T12:58:37.323264,15.34389775,.00010039,53.1597,242.5438,67.7200,292.3909,0,U,65477,999,4235,.10724723E-2,.36021E-3,0
STARLINK-35093,2025-195W,2026-05-29T13:53:55.984416,15.31726266,.0001538,53.1603,242.0713,62.0128,298.1029,0,U,65478,999,4236,.7221293E-3,.22128E-3,0
STARLINK-35096,2025-195X,2026-05-29T14:00:39.294432,15.31726191,.00007889,53.1611,242.0956,95.0951,265.0140,0,U,65479,999,4236,.72701133E-3,.22281E-3,0
STARLINK-35040,2025-195Y,2026-05-29T15:20:44.587680,15.34425554,.00013333,53.1614,241.7129,75.7492,284.3659,0,U,65480,999,4237,.91506729E-3,.30692E-3,0
STARLINK-35042,2025-195Z,2026-05-29T15:38:56.078016,15.34388205,.00010175,53.1604,241.8136,60.3749,299.7354,0,U,65481,999,4237,.1292064E-2,.43515E-3,0
STARLINK-35038,2025-195AA,2026-05-29T15:14:41.068320,15.34409654,.00012243,53.1593,241.6846,114.5134,245.5996,0,U,65482,999,4237,.67187816E-3,.22399E-3,0
STARLINK-35037,2025-195AB,2026-05-30T04:00:01.998720,15.34355707,.0001279,53.1603,239.5435,84.4752,158.6830,0,U,65483,999,590,.19406E-2,.65672E-3,0
STARLINK-35089,2025-195AC,2026-05-29T16:42:25.521408,15.34379533,.00011892,53.1593,241.3557,101.1061,259.0075,0,U,65484,999,4238,.91192534E-3,.3054E-3,0
STARLINK-35143,2025-195AD,2026-05-29T21:52:56.305056,15.30207109,.0002416,53.1591,240.5662,26.3871,333.7252,0,U,65485,999,4241,.11510895E-2,.33897E-3,0
