STARLINK-35005          
1 65456U 25194Y   26150.04457345  .00007659  00000+0  53412-3 0  9997
2 65456  97.4305   4.1689 0002006  95.9164 264.2292 15.05663924 41896
STARLINK-35076          
1 65457U 25194Z   26150.02516969  .00001701  00000+0  12186-3 0  9999
2 65457  97.4302   4.0388 0001507  76.5149 283.6246 15.05656814 41885
STARLINK-34784          
1 65458U 25195A   26150.15702566  .00019460  00000+0  63624-3 0  9999
2 65458  53.1594 239.2878 0001412 109.7469 250.3684 15.31748899 42470
STARLINK-34867          
1 65459U 25195B   26149.51755465  .00032146  00000+0  95774-3 0  9991
2 65459  53.1596 242.4020 0001144  93.4954 266.6179 15.34423823 42376
STARLINK-34850          
1 65460U 25195C   26149.64362430  .00043364  00000+0  12876-2 0  9998
2 65460  53.1606 241.7689 0001361  68.0161 292.0987 15.34388071 42399
STARLINK-35159          
1 65461U 25195D   26149.86006047 -.00008894  00000+0 -25225-3 0  9996
2 65461  53.1601 240.9860 0001575 150.7136 209.3955 15.34416504 42428
STARLINK-35180          
1 65462U 25195E   26149.51966112  .00030860  00000+0  92122-3 0  9993
2 65462  53.1613 242.4170 0001246  72.0149 288.0990 15.34382777 42379
STARLINK-35111          
1 65463U 25195F   26150.16668980  .00065921  00000+0  21196-2 0  9997
2 65463  53.1599 239.4371 0001295  94.7307 215.6161 15.31665273  5909
STARLINK-35107          
1 65464U 25195G   26149.55111836  .00015940  00000+0  52430-3 0  9994
2 65464  53.1581 241.9019 0001270  98.0397 262.0748 15.31700497 42385
STARLINK-35169          
1 65465U 25195H   26150.16668980  .00062741  00000+0  18553-2 0  9999
2 65465  53.1591 239.6882 0000659  84.8461 100.1555 15.34354210  5911
STARLINK-35027          
1 65466U 25195J   26150.16668980  .00073934  00000+0  21808-2 0  9993
2 65466  53.1603 239.5263 0001238  93.4487 172.9631 15.34356773  5802
STARLINK-34816          
1 65467U 25195K   26149.64428227  .00024513  00000+0  83630-3 0  9994
2 65467  53.1589 242.4783 0001487  59.3792 300.7355 15.30227947 42386
STARLINK-35033          
1 65468U 25195L   26150.20827878  .00037884  00000+0  12244-2 0  9991
2 65468  53.1591 238.8925 0001188  98.9847 261.1289 15.31750235 42484
STARLINK-34924          
1 65469U 25195M   26149.51545493  .00023010  00000+0  69047-3 0  9994
2 65469  53.1605 242.3909 0001436  58.7333 301.3810 15.34380709 42376
STARLINK-34829          
1 65470U 25195N   26149.63970825  .00027901  00000+0  90760-3 0  9999
2 65470  53.1605 241.7420 0001313  74.1365 285.9781 15.31696571 42390
STARLINK-34888          
1 65471U 25195P   26150.16668980  .00085766  00000+0  25229-2 0  9996
2 65471  53.1592 239.6601 0000780 100.3653  96.2444 15.34372497  5795
STARLINK-34799          
1 65472U 25195Q   26149.63731115  .00037516  00000+0  11164-2 0  9991
2 65472  53.1607 241.7299 0001358  75.4759 284.6394 15.34386664 42374
STARLINK-34762          
1 65473U 25195R   26149.63309562  .00017476  00000+0  52671-3 0  9991
2 65473  53.1602 241.6981 0001093 106.8194 253.2928 15.34425624 42370
STARLINK-34998          
1 65474U 25195S   26149.53992496  .00019331  00000+0  66321-3 0  9994
2 65474  53.1590 242.5368 0001507  79.9803 280.1367 15.30194869 42357
STARLINK-34832          
1 65475U 25195T   26149.62889605  .00039718  00000+0  11803-2 0  9997
2 65475  53.1590 241.6756 0001545  39.7508 320.3608 15.34403556 42374
STARLINK-35098          
1 65476U 25195U   26149.48120304  .00027337  00000+0  88892-3 0  9993
2 65476  53.1583 242.1722 0001168  90.4046 269.7089 15.31719098 42353
STARLINK-35071          
1 65477U 25195V   26149.54070976  .00036021  00000+0  10725-2 0  9999
2 65477  53.1597 242.5438 0001003  67.7200 292.3909 15.34389775 42355
STARLINK-35093          
1 65478U 25195W   26149.57912019  .00022128  00000+0  72213-3 0  9990
2 65478  53.1603 242.0713 0001538  62.0128 298.1029 15.31726266 42360
STARLINK-35096          
1 65479U 25195X   26149.58378813  .00022281  00000+0  72701-3 0  9992
2 65479  53.1611 242.0956 0000788  95.0951 265.0140 15.31726191 42369
STARLINK-35040          
1 65480U 25195Y   26149.63940495  .00030692  00000+0  91507-3 0  9991
2 65480  53.1614 241.7129 0001333  75.7492 284.3659 15.34425554 42376
STARLINK-35042          
1 65481U 25195Z   26149.65203794  .00043515  00000+0  12921-2 0  9998
2 65481  53.1604 241.8136 0001017  60.3749 299.7354 15.34388205 42372
STARLINK-35038          
1 65482U 25195AA  26149.63519755  .00022399  00000+0  67188-3 0  9997
2 65482  53.1593 241.6846 0001224 114.5134 245.5996 15.34409654 42379
STARLINK-35037          
1 65483U 25195AB  26150.16668980  .00065672  00000+0  19406-2 0  9993
2 65483  53.1603 239.5435 0001279  84.4752 158.6830 15.34355707  5901
STARLINK-35089          
1 65484U 25195AC  26149.69612872  .00030540  00000+0  91193-3 0  9999
2 65484  53.1593 241.3557 0001189 101.1061 259.0075 15.34379533 42389
STARLINK-35143          
1 65485U 25195AD  26149.91176279  .00033897  00000+0  11511-2 0  9994
2 65485  53.1591 240.5662 0002416  26.3871 333.7252 15.30207109 42413
